{"type": "FeatureCollection", "features": [ {"type": "Feature", "properties": {"norad_id": 34833, "name": "IRIDIUM 33 DEB", "group": "iridium-33-debris", "lat": 51.67115587983494, "lon": -136.2351177088877, "alt_km": 702.8412351218531, "timestamp": "2025-12-18T21:31:51.389533+00:00", "meta": {"OBJECT_NAME": "IRIDIUM 33 DEB", "OBJECT_ID": "1997-051MH", "EPOCH": "2025-12-17T22:03:42.683328", "MEAN_MOTION": 14.5240857, "ECCENTRICITY": 0.00217118, "INCLINATION": 86.3934, "RA_OF_ASC_NODE": 48.7621, "ARG_OF_PERICENTER": 82.9468, "MEAN_ANOMALY": 335.2565, "EPHEMERIS_TYPE": 0, "CLASSIFICATION_TYPE": "U", "NORAD_CAT_ID": 34833, "ELEMENT_SET_NO": 999, "REV_AT_EPOCH": 87790, "BSTAR": 0.00056162231, "MEAN_MOTION_DOT": 2.315e-05, "MEAN_MOTION_DDOT": 0}, "tle": {"line1": "1 34833U 97051MH  25351.91924402  .00002315  00000+0  56162-3 0  9993", "line2": "2 34833  86.3934  48.7621 0021711  82.9468 335.2565 14.52408570877909"}}, "geometry": {"type": "Point", "coordinates": [-136.2351177088877, 51.67115587983494]}}, {"type": "Feature", "properties": {"norad_id": 34870, "name": "IRIDIUM 33 DEB", "group": "iridium-33-debris", "lat": -84.90237867590608, "lon": -95.07246361936329, "alt_km": 652.3751760473488, "timestamp": "2025-12-18T21:31:51.389543+00:00", "meta": {"OBJECT_NAME": "IRIDIUM 33 DEB", "OBJECT_ID": "1997-051MQ", "EPOCH": "2025-12-17T15:48:12.189024", "MEAN_MOTION": 14.76525212, "ECCENTRICITY": 0.00169592, "INCLINATION": 86.3102, "RA_OF_ASC_NODE": 311.8309, "ARG_OF_PERICENTER": 164.6796, "MEAN_ANOMALY": 8.9227, "EPHEMERIS_TYPE": 0, "CLASSIFICATION_TYPE": "U", "NORAD_CAT_ID": 34870, "ELEMENT_SET_NO": 999, "REV_AT_EPOCH": 88983, "BSTAR": 0.0011120343, "MEAN_MOTION_DOT": 7.793e-05, "MEAN_MOTION_DDOT": 0}, "tle": {"line1": "1 34870U 97051MQ  25351.65847441  .00007793  00000+0  11120-2 0  9991", "line2": "2 34870  86.3102 311.8309 0016959 164.6796   8.9227 14.76525212889837"}}, "geometry": {"type": "Point", "coordinates": [-95.07246361936329, -84.90237867590608]}}, {"type": "Feature", "properties": {"norad_id": 34896, "name": "IRIDIUM 33 DEB", "group": "iridium-33-debris", "lat": -69.02172921380588, "lon": 153.5632754773972, "alt_km": 670.5680544131337, "timestamp": "2025-12-18T21:31:51.389554+00:00", "meta": {"OBJECT_NAME": "IRIDIUM 33 DEB", "OBJECT_ID": "1997-051MY", "EPOCH": "2025-12-17T17:20:43.717344", "MEAN_MOTION": 14.6632638, "ECCENTRICITY": 0.00248916, "INCLINATION": 86.3286, "RA_OF_ASC_NODE": 324.4498, "ARG_OF_PERICENTER": 196.3048, "MEAN_ANOMALY": 337.3904, "EPHEMERIS_TYPE": 0, "CLASSIFICATION_TYPE": "U", "NORAD_CAT_ID": 34896, "ELEMENT_SET_NO": 999, "REV_AT_EPOCH": 87692, "BSTAR": 0.00069874419, "MEAN_MOTION_DOT": 3.895e-05, "MEAN_MOTION_DDOT": 0}, "tle": {"line1": "1 34896U 97051MY  25351.72272821  .00003895  00000+0  69874-3 0  9990", "line2": "2 34896  86.3286 324.4498 0024891 196.3048 337.3904 14.66326380876924"}}, "geometry": {"type": "Point", "coordinates": [153.5632754773972, -69.02172921380588]}}, {"type": "Feature", "properties": {"norad_id": 34926, "name": "IRIDIUM 33 DEB", "group": "iridium-33-debris", "lat": 75.3888294495733, "lon": 20.461540230062738, "alt_km": 754.2668361668511, "timestamp": "2025-12-18T21:31:51.389603+00:00", "meta": {"OBJECT_NAME": "IRIDIUM 33 DEB", "OBJECT_ID": "1997-051NF", "EPOCH": "2025-12-18T01:37:12.305856", "MEAN_MOTION": 14.54654321, "ECCENTRICITY": 0.00746791, "INCLINATION": 86.1318, "RA_OF_ASC_NODE": 5.8033, "ARG_OF_PERICENTER": 274.3347, "MEAN_ANOMALY": 139.5908, "EPHEMERIS_TYPE": 0, "CLASSIFICATION_TYPE": "U", "NORAD_CAT_ID": 34926, "ELEMENT_SET_NO": 999, "REV_AT_EPOCH": 86534, "BSTAR": 0.0042851773, "MEAN_MOTION_DOT": 0.00019062, "MEAN_MOTION_DDOT": 0}, "tle": {"line1": "1 34926U 97051NF  25352.06750354  .00019062  00000+0  42852-2 0  9993", "line2": "2 34926  86.1318   5.8033 0074679 274.3347 139.5908 14.54654321865341"}}, "geometry": {"type": "Point", "coordinates": [20.461540230062738, 75.3888294495733]}}, {"type": "Feature", "properties": {"norad_id": 34985, "name": "IRIDIUM 33 DEB", "group": "iridium-33-debris", "lat": -76.25182630430773, "lon": 39.213811921263485, "alt_km": 757.6325253127179, "timestamp": "2025-12-18T21:31:51.389615+00:00", "meta": {"OBJECT_NAME": "IRIDIUM 33 DEB", "OBJECT_ID": "1997-051NR", "EPOCH": "2025-12-18T03:42:15.992064", "MEAN_MOTION": 14.42032375, "ECCENTRICITY": 0.00213063, "INCLINATION": 86.3697, "RA_OF_ASC_NODE": 54.5701, "ARG_OF_PERICENTER": 201.5738, "MEAN_ANOMALY": 187.9746, "EPHEMERIS_TYPE": 0, "CLASSIFICATION_TYPE": "U", "NORAD_CAT_ID": 34985, "ELEMENT_SET_NO": 999, "REV_AT_EPOCH": 87253, "BSTAR": 0.00049263148, "MEAN_MOTION_DOT": 1.64e-05, "MEAN_MOTION_DDOT": 0}, "tle": {"line1": "1 34985U 97051NR  25352.15435176  .00001640  00000+0  49263-3 0  9997", "line2": "2 34985  86.3697  54.5701 0021306 201.5738 187.9746 14.42032375872538"}}, "geometry": {"type": "Point", "coordinates": [39.213811921263485, -76.25182630430773]}}, {"type": "Feature", "properties": {"norad_id": 35051, "name": "IRIDIUM 33 DEB", "group": "iridium-33-debris", "lat": -20.695869245133014, "lon": 4.787050820556285, "alt_km": 739.2406645808187, "timestamp": "2025-12-18T21:31:51.389626+00:00", "meta": {"OBJECT_NAME": "IRIDIUM 33 DEB", "OBJECT_ID": "1997-051NX", "EPOCH": "2025-12-17T07:28:14.191104", "MEAN_MOTION": 14.47618427, "ECCENTRICITY": 0.00105426, "INCLINATION": 86.3241, "RA_OF_ASC_NODE": 6.8697, "ARG_OF_PERICENTER": 78.4974, "MEAN_ANOMALY": 281.7412, "EPHEMERIS_TYPE": 0, "CLASSIFICATION_TYPE": "U", "NORAD_CAT_ID": 35051, "ELEMENT_SET_NO": 999, "REV_AT_EPOCH": 87062, "BSTAR": 0.00048726324, "MEAN_MOTION_DOT": 1.815e-05, "MEAN_MOTION_DDOT": 0}, "tle": {"line1": "1 35051U 97051NX  25351.31127536  .00001815  00000+0  48726-3 0  9994", "line2": "2 35051  86.3241   6.8697 0010542  78.4974 281.7412 14.47618427870629"}}, "geometry": {"type": "Point", "coordinates": [4.787050820556285, -20.695869245133014]}}, {"type": "Feature", "properties": {"norad_id": 35052, "name": "IRIDIUM 33 DEB", "group": "iridium-33-debris", "lat": -72.87408823726504, "lon": 5.815735236352305, "alt_km": 778.2940813384894, "timestamp": "2025-12-18T21:31:51.389636+00:00", "meta": {"OBJECT_NAME": "IRIDIUM 33 DEB", "OBJECT_ID": "1997-051NY", "EPOCH": "2025-12-17T12:28:55.141824", "MEAN_MOTION": 14.38497693, "ECCENTRICITY": 0.00135167, "INCLINATION": 86.3305, "RA_OF_ASC_NODE": 18.4267, "ARG_OF_PERICENTER": 71.7027, "MEAN_ANOMALY": 288.5641, "EPHEMERIS_TYPE": 0, "CLASSIFICATION_TYPE": "U", "NORAD_CAT_ID": 35052, "ELEMENT_SET_NO": 999, "REV_AT_EPOCH": 87344, "BSTAR": 0.00015333299, "MEAN_MOTION_DOT": 4.89e-06, "MEAN_MOTION_DDOT": 0}, "tle": {"line1": "1 35052U 97051NY  25351.52008266  .00000489  00000+0  15333-3 0  9990", "line2": "2 35052  86.3305  18.4267 0013516  71.7027 288.5641 14.38497693873444"}}, "geometry": {"type": "Point", "coordinates": [5.815735236352305, -72.87408823726504]}}, {"type": "Feature", "properties": {"norad_id": 35080, "name": "IRIDIUM 33 DEB", "group": "iridium-33-debris", "lat": 81.63121879390124, "lon": 76.22724926343803, "alt_km": 590.4483893486122, "timestamp": "2025-12-18T21:31:51.389647+00:00", "meta": {"OBJECT_NAME": "IRIDIUM 33 DEB", "OBJECT_ID": "1997-051PF", "EPOCH": "2025-12-18T03:23:24.146880", "MEAN_MOTION": 14.86677216, "ECCENTRICITY": 0.00593996, "INCLINATION": 86.2085, "RA_OF_ASC_NODE": 49.7944, "ARG_OF_PERICENTER": 161.1545, "MEAN_ANOMALY": 199.1899, "EPHEMERIS_TYPE": 0, "CLASSIFICATION_TYPE": "U", "NORAD_CAT_ID": 35080, "ELEMENT_SET_NO": 999, "REV_AT_EPOCH": 69768, "BSTAR": 0.004837816, "MEAN_MOTION_DOT": 0.0004462, "MEAN_MOTION_DDOT": 0}, "tle": {"line1": "1 35080U 97051PF  25352.14125170  .00044620  00000+0  48378-2 0  9993", "line2": "2 35080  86.2085  49.7944 0059399 161.1545 199.1899 14.86677216697682"}}, "geometry": {"type": "Point", "coordinates": [76.22724926343803, 81.63121879390124]}}, {"type": "Feature", "properties": {"norad_id": 35297, "name": "IRIDIUM 33 DEB", "group": "iridium-33-debris", "lat": -18.641890731686598, "lon": 58.91043024422207, "alt_km": 756.314600480393, "timestamp": "2025-12-18T21:31:51.389657+00:00", "meta": {"OBJECT_NAME": "IRIDIUM 33 DEB", "OBJECT_ID": "1997-051PM", "EPOCH": "2025-12-16T11:27:21.167712", "MEAN_MOTION": 14.45174956, "ECCENTRICITY": 0.00178431, "INCLINATION": 86.3863, "RA_OF_ASC_NODE": 61.1645, "ARG_OF_PERICENTER": 129.6186, "MEAN_ANOMALY": 230.6595, "EPHEMERIS_TYPE": 0, "CLASSIFICATION_TYPE": "U", "NORAD_CAT_ID": 35297, "ELEMENT_SET_NO": 999, "REV_AT_EPOCH": 70480, "BSTAR": 0.00045011402, "MEAN_MOTION_DOT": 1.598e-05, "MEAN_MOTION_DDOT": 0}, "tle": {"line1": "1 35297U 97051PM  25350.47732833  .00001598  00000+0  45011-3 0  9996", "line2": "2 35297  86.3863  61.1645 0017843 129.6186 230.6595 14.45174956704806"}}, "geometry": {"type": "Point", "coordinates": [58.91043024422207, -18.641890731686598]}}, {"type": "Feature", "properties": {"norad_id": 35299, "name": "IRIDIUM 33 DEB", "group": "iridium-33-debris", "lat": -0.1467410357038949, "lon": -149.48434893356185, "alt_km": 763.7416955422668, "timestamp": "2025-12-18T21:31:51.389667+00:00", "meta": {"OBJECT_NAME": "IRIDIUM 33 DEB", "OBJECT_ID": "1997-051PP", "EPOCH": "2025-12-18T02:30:13.094208", "MEAN_MOTION": 14.40886995, "ECCENTRICITY": 0.00588566, "INCLINATION": 86.2881, "RA_OF_ASC_NODE": 30.8512, "ARG_OF_PERICENTER": 85.3219, "MEAN_ANOMALY": 304.2144, "EPHEMERIS_TYPE": 0, "CLASSIFICATION_TYPE": "U", "NORAD_CAT_ID": 35299, "ELEMENT_SET_NO": 999, "REV_AT_EPOCH": 86408, "BSTAR": 0.00059608635, "MEAN_MOTION_DOT": 1.971e-05, "MEAN_MOTION_DDOT": 0}, "tle": {"line1": "1 35299U 97051PP  25352.10431822  .00001971  00000+0  59609-3 0  9997", "line2": "2 35299  86.2881  30.8512 0058856  85.3219 304.2144 14.40886995864080"}}, "geometry": {"type": "Point", "coordinates": [-149.48434893356185, -0.1467410357038949]}}]}